[{"OBJECT_NAME":"STARLINK-35949","OBJECT_ID":"2025-271P","EPOCH":"2026-03-09T11:03:24.733152","MEAN_MOTION":15.30187841,"ECCENTRICITY":0.00014626,"INCLINATION":53.1604,"RA_OF_ASC_NODE":140.851,"ARG_OF_PERICENTER":105.6673,"MEAN_ANOMALY":254.4489,"EPHEMERIS_TYPE":0,"CLASSIFICATION_TYPE":"U","NORAD_CAT_ID":66630,"ELEMENT_SET_NO":999,"REV_AT_EPOCH":1753,"BSTAR":0.00086234911,"MEAN_MOTION_DOT":0.00025258,"MEAN_MOTION_DDOT":0},{"OBJECT_NAME":"SIMSAT 2","OBJECT_ID":"2000-026B","EPOCH":"2026-03-09T20:25:01.673184","MEAN_MOTION":15.29036787,"ECCENTRICITY":0.00037035,"INCLINATION":86.3514,"RA_OF_ASC_NODE":176.4271,"ARG_OF_PERICENTER":287.9875,"MEAN_ANOMALY":72.0969,"EPHEMERIS_TYPE":0,"CLASSIFICATION_TYPE":"U","NORAD_CAT_ID":26366,"ELEMENT_SET_NO":999,"REV_AT_EPOCH":42803,"BSTAR":0.00013465771,"MEAN_MOTION_DOT":3.833e-5,"MEAN_MOTION_DDOT":0}]
